{
  "type": "FeatureCollection",
  "features": [
    {
      "type": "Feature",
      "properties": {
        "norad_id": 58647,
        "name": "TIANMU-1 13",
        "group": "weather",
        "lat": 49.48404574007418,
        "lon": 6.385369324552785,
        "alt_km": 491.8160926558912,
        "timestamp": "2025-12-21T14:40:47.553554+00:00",
        "meta_object_name": "TIANMU-1 13",
        "meta_object_id": "2023-205C",
        "meta_epoch": "2025-12-21T05:00:35.486784",
        "meta_mean_motion": 15.24622614,
        "meta_eccentricity": 0.00063322,
        "meta_inclination": 97.361,
        "meta_ra_of_asc_node": 14.6904,
        "meta_arg_of_pericenter": 229.4131,
        "meta_mean_anomaly": 130.6556,
        "meta_ephemeris_type": 0,
        "meta_classification_type": "U",
        "meta_norad_cat_id": 58647,
        "meta_element_set_no": 999,
        "meta_rev_at_epoch": 11036,
        "meta_bstar": 0.00020655689,
        "meta_mean_motion_dot": 5.028e-05,
        "meta_mean_motion_ddot": 0,
        "tle_line1": "1 58647U 23205C   25355.20874406  .00005028  00000+0  20656-3 0  9999",
        "tle_line2": "2 58647  97.3610  14.6904 0006332 229.4131 130.6556 15.24622614110368"
      },
      "geometry": {
        "type": "Point",
        "coordinates": [
          6.385369324552785,
          49.48404574007418
        ]
      }
    },
    {
      "type": "Feature",
      "properties": {
        "norad_id": 58648,
        "name": "TIANMU-1 14",
        "group": "weather",
        "lat": 38.97509746736353,
        "lon": -159.57514981734423,
        "alt_km": 489.3939096889917,
        "timestamp": "2025-12-21T14:40:47.553564+00:00",
        "meta_object_name": "TIANMU-1 14",
        "meta_object_id": "2023-205D",
        "meta_epoch": "2025-12-21T07:45:50.572800",
        "meta_mean_motion": 15.24606912,
        "meta_eccentricity": 0.00070825,
        "meta_inclination": 97.3541,
        "meta_ra_of_asc_node": 14.144,
        "meta_arg_of_pericenter": 235.2528,
        "meta_mean_anomaly": 124.8043,
        "meta_ephemeris_type": 0,
        "meta_classification_type": "U",
        "meta_norad_cat_id": 58648,
        "meta_element_set_no": 999,
        "meta_rev_at_epoch": 11038,
        "meta_bstar": 0.00020247284,
        "meta_mean_motion_dot": 4.925e-05,
        "meta_mean_motion_ddot": 0,
        "tle_line1": "1 58648U 23205D   25355.32350200  .00004925  00000+0  20247-3 0  9995",
        "tle_line2": "2 58648  97.3541  14.1440 0007082 235.2528 124.8043 15.24606912110381"
      },
      "geometry": {
        "type": "Point",
        "coordinates": [
          -159.57514981734423,
          38.97509746736353
        ]
      }
    },
    {
      "type": "Feature",
      "properties": {
        "norad_id": 58660,
        "name": "TIANMU-1 19",
        "group": "weather",
        "lat": 36.629187179047136,
        "lon": -67.79288869035615,
        "alt_km": 478.29749628927675,
        "timestamp": "2025-12-21T14:40:47.553575+00:00",
        "meta_object_name": "TIANMU-1 19",
        "meta_object_id": "2023-208A",
        "meta_epoch": "2025-12-21T06:11:51.548064",
        "meta_mean_motion": 15.27993101,
        "meta_eccentricity": 0.00045264,
        "meta_inclination": 97.4395,
        "meta_ra_of_asc_node": 106.2794,
        "meta_arg_of_pericenter": 215.4921,
        "meta_mean_anomaly": 144.6018,
        "meta_ephemeris_type": 0,
        "meta_classification_type": "U",
        "meta_norad_cat_id": 58660,
        "meta_element_set_no": 999,
        "meta_rev_at_epoch": 11012,
        "meta_bstar": 0.00027438341,
        "meta_mean_motion_dot": 7.421e-05,
        "meta_mean_motion_ddot": 0,
        "tle_line1": "1 58660U 23208A   25355.25823551  .00007421  00000+0  27438-3 0  9991",
        "tle_line2": "2 58660  97.4395 106.2794 0004526 215.4921 144.6018 15.27993101110121"
      },
      "geometry": {
        "type": "Point",
        "coordinates": [
          -67.79288869035615,
          36.629187179047136
        ]
      }
    },
    {
      "type": "Feature",
      "properties": {
        "norad_id": 58661,
        "name": "TIANMU-1 20",
        "group": "weather",
        "lat": -73.49867691428767,
        "lon": -99.06177479329845,
        "alt_km": 481.503945642874,
        "timestamp": "2025-12-21T14:40:47.553585+00:00",
        "meta_object_name": "TIANMU-1 20",
        "meta_object_id": "2023-208B",
        "meta_epoch": "2025-12-21T07:17:06.558432",
        "meta_mean_motion": 15.29184133,
        "meta_eccentricity": 0.00066023,
        "meta_inclination": 97.4333,
        "meta_ra_of_asc_node": 106.7806,
        "meta_arg_of_pericenter": 230.0746,
        "meta_mean_anomaly": 129.9914,
        "meta_ephemeris_type": 0,
        "meta_classification_type": "U",
        "meta_norad_cat_id": 58661,
        "meta_element_set_no": 999,
        "meta_rev_at_epoch": 11020,
        "meta_bstar": 0.00025768937,
        "meta_mean_motion_dot": 7.226e-05,
        "meta_mean_motion_ddot": 0,
        "tle_line1": "1 58661U 23208B   25355.30354813  .00007226  00000+0  25769-3 0  9996",
        "tle_line2": "2 58661  97.4333 106.7806 0006602 230.0746 129.9914 15.29184133110207"
      },
      "geometry": {
        "type": "Point",
        "coordinates": [
          -99.06177479329845,
          -73.49867691428767
        ]
      }
    },
    {
      "type": "Feature",
      "properties": {
        "norad_id": 58662,
        "name": "TIANMU-1 21",
        "group": "weather",
        "lat": -19.50040984125969,
        "lon": 111.68852904019445,
        "alt_km": 477.8662477081243,
        "timestamp": "2025-12-21T14:40:47.553611+00:00",
        "meta_object_name": "TIANMU-1 21",
        "meta_object_id": "2023-208C",
        "meta_epoch": "2025-12-21T06:55:34.519872",
        "meta_mean_motion": 15.317198,
        "meta_eccentricity": 0.00062403,
        "meta_inclination": 97.4382,
        "meta_ra_of_asc_node": 108.7125,
        "meta_arg_of_pericenter": 224.3197,
        "meta_mean_anomaly": 135.7545,
        "meta_ephemeris_type": 0,
        "meta_classification_type": "U",
        "meta_norad_cat_id": 58662,
        "meta_element_set_no": 999,
        "meta_rev_at_epoch": 11030,
        "meta_bstar": 0.00028524143,
        "meta_mean_motion_dot": 8.663e-05,
        "meta_mean_motion_ddot": 0,
        "tle_line1": "1 58662U 23208C   25355.28859398  .00008663  00000+0  28524-3 0  9990",
        "tle_line2": "2 58662  97.4382 108.7125 0006240 224.3197 135.7545 15.31719800110306"
      },
      "geometry": {
        "type": "Point",
        "coordinates": [
          111.68852904019445,
          -19.50040984125969
        ]
      }
    },
    {
      "type": "Feature",
      "properties": {
        "norad_id": 58663,
        "name": "TIANMU-1 22",
        "group": "weather",
        "lat": 43.33104420481134,
        "lon": -66.23252732836245,
        "alt_km": 479.4931006916222,
        "timestamp": "2025-12-21T14:40:47.553622+00:00",
        "meta_object_name": "TIANMU-1 22",
        "meta_object_id": "2023-208D",
        "meta_epoch": "2025-12-21T06:13:33.494016",
        "meta_mean_motion": 15.27737285,
        "meta_eccentricity": 0.00027806,
        "meta_inclination": 97.4389,
        "meta_ra_of_asc_node": 106.3357,
        "meta_arg_of_pericenter": 241.7022,
        "meta_mean_anomaly": 118.3937,
        "meta_ephemeris_type": 0,
        "meta_classification_type": "U",
        "meta_norad_cat_id": 58663,
        "meta_element_set_no": 999,
        "meta_rev_at_epoch": 11013,
        "meta_bstar": 0.00025814722,
        "meta_mean_motion_dot": 6.921e-05,
        "meta_mean_motion_ddot": 0,
        "tle_line1": "1 58663U 23208D   25355.25941544  .00006921  00000+0  25815-3 0  9998",
        "tle_line2": "2 58663  97.4389 106.3357 0002780 241.7022 118.3937 15.27737285110135"
      },
      "geometry": {
        "type": "Point",
        "coordinates": [
          -66.23252732836245,
          43.33104420481134
        ]
      }
    },
    {
      "type": "Feature",
      "properties": {
        "norad_id": 58700,
        "name": "TIANMU-1 15",
        "group": "weather",
        "lat": 16.41364482839109,
        "lon": -0.7395239998840488,
        "alt_km": 492.919190178377,
        "timestamp": "2025-12-21T14:40:47.553635+00:00",
        "meta_object_name": "TIANMU-1 15",
        "meta_object_id": "2024-004A",
        "meta_epoch": "2025-12-21T06:05:19.438944",
        "meta_mean_motion": 15.2451044,
        "meta_eccentricity": 0.00059653,
        "meta_inclination": 97.4622,
        "meta_ra_of_asc_node": 176.6912,
        "meta_arg_of_pericenter": 253.9165,
        "meta_mean_anomaly": 106.1416,
        "meta_ephemeris_type": 0,
        "meta_classification_type": "U",
        "meta_norad_cat_id": 58700,
        "meta_element_set_no": 999,
        "meta_rev_at_epoch": 10864,
        "meta_bstar": 0.00022718254,
        "meta_mean_motion_dot": 5.516e-05,
        "meta_mean_motion_ddot": 0,
        "tle_line1": "1 58700U 24004A   25355.25369721  .00005516  00000+0  22718-3 0  9994",
        "tle_line2": "2 58700  97.4622 176.6912 0005965 253.9165 106.1416 15.24510440108644"
      },
      "geometry": {
        "type": "Point",
        "coordinates": [
          -0.7395239998840488,
          16.41364482839109
        ]
      }
    }
  ]
}